     3.02           N: GNSS NAV DATA    G: GPS              RINEX VERSION / TYPE
GR50 V4.50          IGG of WUELS        20230302 062942 UTC PGM / RUN BY / DATE
GPSA   2.7940D-08  0.0000D+00 -1.1921D-07  5.9605D-08       IONOSPHERIC CORR
GPSB   1.3312D+05 -1.6384D+04 -1.9661D+05 -6.5536D+04       IONOSPHERIC CORR
GPUT  5.5879354477D-09 1.332267630D-14 589824 2251          TIME SYSTEM CORR
    18    18  1929     7                                    LEAP SECONDS
                                                            END OF HEADER
G01 2023 03 02 02 00 00 2.071019262075D-04-3.979039320257D-12 0.000000000000D+00
     3.900000000000D+01 1.953125000000D+01 3.951236013411D-09 3.029707785044D+00
     8.624047040939D-07 1.242677145638D-02 3.300607204437D-06 5.153651189804D+03
     3.528000000000D+05 1.303851604462D-08-2.388305005141D+00-2.253800630569D-07
     9.895930354706D-01 3.290625000000D+02 9.381179821623D-01-7.747108412447D-09
     8.036049019412D-11 1.000000000000D+00 2.251000000000D+03 0.000000000000D+00
     2.000000000000D+00 0.000000000000D+00 4.656612873077D-09 3.900000000000D+01
     3.456000000000D+05                   
G02 2023 03 02 08 00 00-6.173131987453D-04 2.728484105319D-12 0.000000000000D+00
     2.100000000000D+01 3.418750000000D+01 4.568761735836D-09-1.105273308921D+00
     2.032145857811D-06 1.996768161189D-02 4.092231392860D-06 5.153683664322D+03
     3.744000000000D+05-3.613531589508D-07-2.485548928107D+00 1.043081283569D-07
     9.672839341384D-01 3.115625000000D+02-1.321540330202D+00-8.467495562321D-09
     2.910835533698D-10 1.000000000000D+00 2.251000000000D+03 0.000000000000D+00
     2.000000000000D+00 0.000000000000D+00-1.769512891769D-08 2.100000000000D+01
     3.672000000000D+05                   
G03 2023 03 02 04 00 00-3.564059734344D-04 5.684341886081D-12 0.000000000000D+00
     1.200000000000D+02-8.346875000000D+01 4.107313943255D-09 2.932471324424D+00
    -4.399567842484D-06 4.514998639934D-03 5.381181836128D-06 5.153716663361D+03
     3.600000000000D+05-1.676380634308D-08-1.356751438578D+00-9.499490261078D-08
     9.774654094835D-01 2.812812500000D+02 1.008821619001D+00-7.857827310048D-09
    -1.139333172086D-10 1.000000000000D+00 2.251000000000D+03 0.000000000000D+00
     2.000000000000D+00 0.000000000000D+00 1.862645149231D-09 1.200000000000D+02
     3.528000000000D+05                   
G05 2023 03 02 07 59 44-1.178779639304D-04-1.477928890381D-12 0.000000000000D+00
     4.000000000000D+00-8.400000000000D+01 4.518759653049D-09 2.482586138638D+00
    -4.453584551811D-06 5.786986788735D-03 4.848465323448D-06 5.153625822067D+03
     3.743840000000D+05 1.862645149231D-09-1.402321528389D+00-9.126961231232D-08
     9.644831657723D-01 2.889687500000D+02 1.128867535510D+00-8.011762293487D-09
    -7.250302004181D-11 1.000000000000D+00 2.251000000000D+03 0.000000000000D+00
     2.000000000000D+00 0.000000000000D+00-1.117587089539D-08 4.000000000000D+00
     3.672000000000D+05                   
G06 2023 03 02 05 59 28 5.776942707598D-04 3.524291969370D-12 0.000000000000D+00
     4.800000000000D+01 2.543750000000D+01 4.046597128442D-09-9.313682024926D-01
     1.098960638046D-06 2.923202351667D-03 3.583729267120D-06 5.153620992661D+03
     3.671680000000D+05 1.490116119385D-08-2.396727827666D+00-5.401670932770D-08
     9.888428115808D-01 3.255000000000D+02-8.181301610565D-01-8.024262814183D-09
     1.875078104529D-10 1.000000000000D+00 2.251000000000D+03 0.000000000000D+00
     2.000000000000D+00 0.000000000000D+00 3.725290298462D-09 4.800000000000D+01
     3.600000000000D+05                   
G07 2023 03 02 08 00 00 2.312790602446D-04-7.389644451905D-12 0.000000000000D+00
     2.500000000000D+01 1.937500000000D+01 5.054496254343D-09-6.905903194131D-01
     1.095235347748D-06 1.683471223805D-02 6.416812539101D-06 5.153579828262D+03
     3.744000000000D+05 1.303851604462D-08 7.397543220340D-01 3.147870302200D-07
     9.505421416442D-01 2.499375000000D+02-2.221325740573D+00-8.397135488684D-09
     4.357324357192D-11 1.000000000000D+00 2.251000000000D+03 0.000000000000D+00
     2.000000000000D+00 0.000000000000D+00-1.117587089539D-08 2.500000000000D+01
     3.672000000000D+05                   
G08 2023 03 02 08 00 00-1.109591685236D-04-1.818989403546D-12 0.000000000000D+00
     4.100000000000D+01 9.046875000000D+01 4.286249968087D-09 2.116451029172D+00
     4.654750227928D-06 8.373195421882D-03 8.504837751389D-06 5.153670639038D+03
     3.744000000000D+05-1.117587089539D-07 2.805892169380D+00 9.872019290924D-08
     9.600754243208D-01 2.145937500000D+02 2.260555553670D-01-7.936044853837D-09
    -8.036049019412D-11 1.000000000000D+00 2.251000000000D+03 0.000000000000D+00
     2.000000000000D+00 0.000000000000D+00 5.122274160385D-09 4.100000000000D+01
     3.672000000000D+05                   
G09 2023 03 02 06 00 00-2.086600288749D-04 7.275957614183D-12 0.000000000000D+00
     6.500000000000D+01-4.562500000000D+01 4.441256424728D-09 1.407783368148D+00
    -2.507120370865D-06 2.452432760037D-03 9.264796972275D-06 5.153666166306D+03
     3.672000000000D+05 5.587935447693D-09-3.314958543044D-01-7.636845111847D-08
     9.560233080139D-01 1.953125000000D+02 1.966856281379D+00-7.865327622466D-09
     1.528635102359D-10 1.000000000000D+00 2.251000000000D+03 0.000000000000D+00
     2.000000000000D+00 0.000000000000D+00 1.396983861923D-09 6.500000000000D+01
     3.600000000000D+05                   
G10 2023 03 01 22 00 00-2.679368481040D-05-1.591615728103D-12 0.000000000000D+00
     3.500000000000D+01-8.234375000000D+01 4.065169330620D-09-1.170795497658D+00
    -4.375353455544D-06 8.452270179987D-03 5.971640348434D-06 5.153685920715D+03
     3.384000000000D+05 2.495944499969D-07-1.359248824067D+00 1.303851604462D-08
     9.772210407217D-01 2.722187500000D+02-2.435592019498D+00-7.872827934884D-09
    -1.471489864888D-10 1.000000000000D+00 2.251000000000D+03 0.000000000000D+00
     2.000000000000D+00 0.000000000000D+00 2.328306436539D-09 3.500000000000D+01
     3.312000000000D+05                   
G11 2023 03 02 06 00 00-1.182975247502D-04-1.091393642128D-11 0.000000000000D+00
     1.050000000000D+02 1.821875000000D+01 4.617335187687D-09 3.076943775745D-01
     9.089708328247D-07 7.533115567639D-04 3.024935722351D-06 5.153712276459D+03
     3.672000000000D+05-9.313225746155D-09-2.353460882932D+00-2.980232238770D-08
     9.649327263498D-01 3.248125000000D+02-2.682696632671D+00-8.252843764069D-09
     1.242908915002D-10 1.000000000000D+00 2.251000000000D+03 0.000000000000D+00
     2.000000000000D+00 0.000000000000D+00-8.847564458847D-09 1.050000000000D+02
     3.600000000000D+05                   
G12 2023 03 02 02 00 00-3.464287146926D-04-4.661160346586D-12 0.000000000000D+00
     4.900000000000D+01 2.309375000000D+01 4.388039922333D-09 1.626460750310D+00
     1.078471541405D-06 8.948668837547D-03 8.177012205124D-06 5.153648019791D+03
     3.528000000000D+05-1.024454832077D-07 1.854757670262D+00-2.328306436539D-07
     9.658866806001D-01 2.235937500000D+02 1.342599249539D+00-7.877828143163D-09
    -3.200133298397D-10 1.000000000000D+00 2.251000000000D+03 0.000000000000D+00
     2.800000000000D+00 0.000000000000D+00-1.257285475731D-08 4.900000000000D+01
     3.456000000000D+05                   
G13 2023 03 02 08 00 00 4.841513000429D-04 5.911715561524D-12 0.000000000000D+00
     4.900000000000D+01-3.312500000000D+01 4.280535444340D-09 1.665854274180D+00
    -1.745298504829D-06 6.790745072067D-03 9.700655937195D-06 5.153670696259D+03
     3.744000000000D+05-1.993030309677D-07-1.727131354068D-01-3.911554813385D-08
     9.699467420151D-01 1.988437500000D+02 9.287928493217D-01-7.773538084778D-09
     2.482246252663D-10 1.000000000000D+00 2.251000000000D+03 0.000000000000D+00
     2.000000000000D+00 0.000000000000D+00-1.117587089539D-08 4.900000000000D+01
     3.672000000000D+05                   
G14 2023 03 02 08 00 00-1.463619992137D-05 9.663381206337D-12 0.000000000000D+00
     1.200000000000D+01 1.006250000000D+01 4.677694844766D-09-1.440834157600D+00
     4.991888999939D-07 2.742596901953D-03 7.804483175278D-06 5.153664514542D+03
     3.744000000000D+05-1.303851604462D-07 1.817264466737D+00-1.080334186554D-07
     9.492290073583D-01 2.249375000000D+02-3.084654402935D+00-7.956045686952D-09
    -4.064455015151D-10 1.000000000000D+00 2.251000000000D+03 0.000000000000D+00
     2.000000000000D+00 0.000000000000D+00-7.916241884232D-09 2.680000000000D+02
     3.672000000000D+05                   
G15 2023 03 02 08 00 00 1.793075352907D-05 3.296918293927D-12 0.000000000000D+00
     3.400000000000D+01-5.746875000000D+01 5.219860285276D-09 1.147055102146D+00
    -2.942979335785D-06 1.476291823201D-02 9.795650839806D-06 5.153686994553D+03
     3.744000000000D+05-3.054738044739D-07-4.476203018680D-01-1.303851604462D-08
     9.321915137697D-01 1.825312500000D+02 1.180666284313D+00-8.416064848597D-09
     9.286101089098D-11 1.000000000000D+00 2.251000000000D+03 0.000000000000D+00
     2.000000000000D+00 0.000000000000D+00-1.071020960808D-08 3.400000000000D+01
     3.672000000000D+05                   
G16 2023 03 02 05 59 44-5.176467821002D-04 1.932676241267D-12 0.000000000000D+00
     1.500000000000D+01 2.065625000000D+01 4.400183285296D-09 1.879261859691D+00
     9.648501873016D-07 1.341274054721D-02 8.424744009972D-06 5.153558610916D+03
     3.671840000000D+05-2.868473529816D-07 1.872990502510D+00-1.154839992523D-07
     9.656264113817D-01 2.229375000000D+02 7.759867871473D-01-7.902472026823D-09
    -4.364467511876D-10 1.000000000000D+00 2.251000000000D+03 0.000000000000D+00
     2.000000000000D+00 0.000000000000D+00-1.024454832077D-08 1.500000000000D+01
     3.600000000000D+05                   
